{
    "links": {
        "self": "http://www.neowsapp.com/rest/v1/neo/3709966?api_key=iIulBulltgU6a56xZRHN4H3l9WmuAYTsLGpBGhQ2"
    },
    "id": "3709966",
    "neo_reference_id": "3709966",
    "name": "(2015 CE1)",
    "designation": "2015 CE1",
    "nasa_jpl_url": "http://ssd.jpl.nasa.gov/sbdb.cgi?sstr=3709966",
    "absolute_magnitude_h": 24.6,
    "estimated_diameter": {
        "kilometers": {
            "estimated_diameter_min": 0.0319561887,
            "estimated_diameter_max": 0.0714562102
        },
        "meters": {
            "estimated_diameter_min": 31.9561886721,
            "estimated_diameter_max": 71.4562101727
        },
        "miles": {
            "estimated_diameter_min": 0.0198566489,
            "estimated_diameter_max": 0.0444008168
        },
        "feet": {
            "estimated_diameter_min": 104.8431420431,
            "estimated_diameter_max": 234.436392583
        }
    },
    "is_potentially_hazardous_asteroid": false,
    "close_approach_data": [
        {
            "close_approach_date": "2013-02-01",
            "close_approach_date_full": "2013-Feb-01 20:46",
            "epoch_date_close_approach": 1359751560000,
            "relative_velocity": {
                "kilometers_per_second": "20.7121684156",
                "kilometers_per_hour": "74563.8062961384",
                "miles_per_hour": "46331.0495288422"
            },
            "miss_distance": {
                "astronomical": "0.0089823859",
                "lunar": "3.4941481151",
                "kilometers": "1343745.798158033",
                "miles": "834964.9211375354"
            },
            "orbiting_body": "Earth"
        },
        {
            "close_approach_date": "2013-02-01",
            "close_approach_date_full": "2013-Feb-01 21:50",
            "epoch_date_close_approach": 1359755400000,
            "relative_velocity": {
                "kilometers_per_second": "21.6966607513",
                "kilometers_per_hour": "78107.9787045612",
                "miles_per_hour": "48533.2604345092"
            },
            "miss_distance": {
                "astronomical": "0.0097699277",
                "lunar": "3.8005018753",
                "kilometers": "1461560.373973999",
                "miles": "908171.5039152262"
            },
            "orbiting_body": "Moon"
        },
        {
            "close_approach_date": "2015-02-03",
            "close_approach_date_full": "2015-Feb-03 09:47",
            "epoch_date_close_approach": 1422956820000,
            "relative_velocity": {
                "kilometers_per_second": "21.3514978155",
                "kilometers_per_hour": "76865.3921356301",
                "miles_per_hour": "47761.1654633864"
            },
            "miss_distance": {
                "astronomical": "0.0258419776",
                "lunar": "10.0525292864",
                "kilometers": "3865904.805547712",
                "miles": "2402161.8564419456"
            },
            "orbiting_body": "Earth"
        },
        {
            "close_approach_date": "2017-02-04",
            "close_approach_date_full": "2017-Feb-04 22:15",
            "epoch_date_close_approach": 1486246500000,
            "relative_velocity": {
                "kilometers_per_second": "22.570788361",
                "kilometers_per_hour": "81254.8380994351",
                "miles_per_hour": "50488.5964846184"
            },
            "miss_distance": {
                "astronomical": "0.0648753165",
                "lunar": "25.2364981185",
                "kilometers": "9705209.163975855",
                "miles": "6030537.334762599"
            },
            "orbiting_body": "Earth"
        },
        {
            "close_approach_date": "2131-07-11",
            "close_approach_date_full": "2131-Jul-11 19:46",
            "epoch_date_close_approach": 5097239160000,
            "relative_velocity": {
                "kilometers_per_second": "20.6494030821",
                "kilometers_per_hour": "74337.8510956057",
                "miles_per_hour": "46190.6497543779"
            },
            "miss_distance": {
                "astronomical": "0.0635396095",
                "lunar": "24.7169080955",
                "kilometers": "9505390.241831765",
                "miles": "5906375.613997757"
            },
            "orbiting_body": "Venus"
        }
    ],
    "orbital_data": {
        "orbit_id": "6",
        "orbit_determination_date": "2017-04-06 08:35:46",
        "first_observation_date": "2015-02-10",
        "last_observation_date": "2015-02-24",
        "data_arc_in_days": 14,
        "observations_used": 22,
        "orbit_uncertainty": "8",
        "minimum_orbit_intersection": ".00866599",
        "jupiter_tisserand_invariant": "4.096",
        "epoch_osculation": "2457068.5",
        "eccentricity": ".6599034914839305",
        "semi_major_axis": "1.591081615919125",
        "inclination": "6.336168921491818",
        "ascending_node_longitude": "137.2822508068094",
        "orbital_period": "733.0559336763824",
        "perihelion_distance": ".5411213023382005",
        "perihelion_argument": "257.6608304274705",
        "aphelion_distance": "2.64104192950005",
        "perihelion_time": "2457008.337093545148",
        "mean_anomaly": "29.5456940306389",
        "mean_motion": ".491094858470823",
        "equinox": "J2000",
        "orbit_class": {
            "orbit_class_type": "APO",
            "orbit_class_description": "Near-Earth asteroid orbits which cross the Earth’s orbit similar to that of 1862 Apollo",
            "orbit_class_range": "a (semi-major axis) > 1.0 AU; q (perihelion) < 1.017 AU"
        }
    },
    "is_sentry_object": false
}